OBJECT_NAME,OBJECT_ID,EPOCH,MEAN_MOTION,ECCENTRICITY,INCLINATION,RA_OF_ASC_NODE,ARG_OF_PERICENTER,MEAN_ANOMALY,EPHEMERIS_TYPE,CLASSIFICATION_TYPE,NORAD_CAT_ID,ELEMENT_SET_NO,REV_AT_EPOCH,BSTAR,MEAN_MOTION_DOT,MEAN_MOTION_DDOT
STARLINK-32029,2024-120L,2026-06-07T13:48:51.122880,15.34393955,.00010416,53.1602,262.0207,69.7111,290.4003,0,U,60145,999,11014,-.37284329E-4,-.1635E-4,0
STARLINK-32127,2024-120M,2026-06-08T00:00:04.000320,15.34408194,.00009663,53.1586,259.9930,80.9606,128.2666,0,U,60146,999,577,.345929E-4,.793E-5,0
STARLINK-32019,2024-120N,2026-06-08T00:00:04.000320,15.34407180,.00011003,53.1583,260.0177,81.7964,115.8508,0,U,60147,999,588,-.16823562E-3,-.6057E-4,0
STARLINK-32021,2024-120P,2026-06-07T23:15:39.857184,15.31694748,.000112,53.1605,250.2602,98.0927,262.0201,0,U,60148,999,11042,-.24936548E-4,-.1139E-4,0
STARLINK-32022,2024-120Q,2026-06-07T23:38:54.017088,15.34383086,.00012761,53.1586,260.3117,88.0440,272.0708,0,U,60149,999,11028,.15109279E-3,.4729E-4,0
STARLINK-32014,2024-120R,2026-06-07T23:46:36.892128,15.30175580,.00028013,53.1610,260.3408,99.6546,260.4772,0,U,60150,999,11020,-.21887191E-3,-.6832E-4,0
STARLINK-32004,2024-120S,2026-06-07T23:51:06.471360,15.30199964,.00012915,53.1607,260.3637,80.2894,279.8252,0,U,60151,999,11028,.11334782E-4,-.23E-6,0
STARLINK-32147,2024-120T,2026-06-07T23:41:56.025600,15.34388909,.00011363,53.1598,260.3292,99.4142,260.6989,0,U,60152,999,11020,-.79441864E-4,-.3058E-4,0
STARLINK-32131,2024-120U,2026-06-07T21:28:44.924160,15.34375804,.00011046,53.1611,260.4603,91.3295,268.7835,0,U,60153,999,11027,-.4802328E-5,-.538E-5,0
STARLINK-32145,2024-120V,2026-06-08T06:00:04.000320,15.34397732,.0001057,53.1589,258.7745,74.9285,99.3135,0,U,60154,999,587,.13865941E-2,.46761E-3,0
STARLINK-32137,2024-120W,2026-06-07T23:29:48.435648,15.34391980,.00011113,53.1594,260.2719,94.9415,265.1714,0,U,60155,999,11020,.42954852E-4,.1075E-4,0
STARLINK-32048,2024-120X,2026-06-07T23:20:42.296928,15.34419880,.00009752,53.1615,260.2316,120.8239,239.2860,0,U,60156,999,11020,-.12076169E-3,-.4456E-4,0
STARLINK-32129,2024-120Y,2026-06-07T23:23:45.721536,15.34372440,.00014104,53.1584,260.2481,61.5707,298.5438,0,U,60157,999,11028,.10636004E-2,.35699E-3,0
ZHONGXING-3A,2024-122A,2026-06-06T20:22:21.679392,1.00273610,.000141,0.0425,119.1641,341.0815,202.1910,0,U,60179,999,720,0,-.3E-5,0
ALOS-4 (DAICHI-4),2024-123A,2026-06-08T07:09:59.775264,14.79467185,.00016357,97.9240,256.5971,97.6811,262.4587,0,U,60182,999,10456,.20891467E-3,.1509E-4,0
STARLINK-11168 [DTC],2024-124A,2026-06-08T00:38:16.295136,15.69819192,.00006528,53.1604,75.8417,36.5407,323.5655,0,U,60183,999,11191,-.19177879E-3,-.2386E-3,0
STARLINK-11187 [DTC],2024-124B,2026-06-08T00:31:15.427776,15.69711351,.00013918,53.1604,75.8152,80.7508,279.3667,0,U,60184,999,11072,-.6094692E-5,-.1327E-4,0
STARLINK-11180 [DTC],2024-124C,2026-06-08T00:24:10.994688,15.69720541,.00011544,53.1590,75.7815,75.6011,284.5135,0,U,60185,999,11072,-.252235E-6,-.619E-5,0
STARLINK-11197 [DTC],2024-124D,2026-06-08T00:17:07.306368,15.69718960,.00009971,53.1587,75.7475,82.1359,277.9772,0,U,60186,999,11072,.1188066E-5,-.445E-5,0
STARLINK-11194 [DTC],2024-124E,2026-06-07T22:38:22.924032,15.69709745,.00012888,53.1597,76.0312,76.3538,283.7624,0,U,60187,999,11071,.6476235E-5,.196E-5,0
STARLINK-11189 [DTC],2024-124F,2026-06-08T01:34:49.247328,15.69715653,.00011463,53.1582,76.1055,87.8297,272.2852,0,U,60188,999,11072,.7983073E-5,.379E-5,0
STARLINK-11183 [DTC],2024-124G,2026-06-08T01:27:45.341280,15.69716600,.00009965,53.1600,76.0663,85.0038,275.1094,0,U,60189,999,11072,.13804254E-4,.1085E-4,0
STARLINK-11179 [DTC],2024-124H,2026-06-08T01:20:41.591616,15.69723973,.00010093,53.1587,76.0391,91.5739,268.5394,0,U,60190,999,11072,-.8233601E-5,-.1586E-4,0
STARLINK-11175 [DTC],2024-124J,2026-06-08T01:13:38.432928,15.69720220,.00010591,53.1569,76.0090,99.0140,261.0998,0,U,60191,999,11072,.14504469E-3,.17027E-3,0
STARLINK-11173 [DTC],2024-124K,2026-06-08T01:06:34.201152,15.69692712,.00019257,53.1586,75.9727,103.3580,256.7653,0,U,60192,999,11072,-.6363649E-5,-.136E-4,0
STARLINK-11172 [DTC],2024-124L,2026-06-08T00:59:30.543936,15.69708210,.00013557,53.1601,75.9367,102.6925,257.4244,0,U,60193,999,11072,-.3169297E-5,-.973E-5,0
STARLINK-11152 [DTC],2024-124M,2026-06-08T00:52:25.665024,15.69679056,.00007717,53.1609,75.9067,96.5684,263.5422,0,U,60194,999,11191,.65065519E-4,.7291E-4,0
STARLINK-11193 [DTC],2024-124N,2026-06-08T00:45:27.197856,15.70005035,.00016782,53.1579,75.8735,43.0493,317.0657,0,U,60195,999,11072,-.46514564E-3,-.5725E-3,0
STARLINK-31869,2024-124P,2026-06-07T13:49:32.080800,15.31700519,.00011959,53.1610,264.5684,85.7130,274.4008,0,U,60196,999,10806,-.23983809E-4,-.1109E-4,0
STARLINK-32023,2024-124Q,2026-06-07T14:07:47.676000,15.34416546,.00020368,53.1597,263.9374,161.0528,199.0550,0,U,60197,999,10807,-.29540494E-3,-.1035E-3,0
