STARLINK-32029          
1 60145U 24120L   26158.57559170 -.00001635  00000+0 -37284-4 0  9990
2 60145  53.1602 262.0207 0001041  69.7111 290.4003 15.34393955110147
STARLINK-32127          
1 60146U 24120M   26159.00004630  .00000793  00000+0  34593-4 0  9998
2 60146  53.1586 259.9930 0000966  80.9606 128.2666 15.34408194  5773
STARLINK-32019          
1 60147U 24120N   26159.00004630 -.00006057  00000+0 -16824-3 0  9996
2 60147  53.1583 260.0177 0001100  81.7964 115.8508 15.34407180  5887
STARLINK-32021          
1 60148U 24120P   26158.96921131 -.00001139  00000+0 -24937-4 0  9996
2 60148  53.1605 250.2602 0001120  98.0927 262.0201 15.31694748110426
STARLINK-32022          
1 60149U 24120Q   26158.98534742  .00004729  00000+0  15109-3 0  9993
2 60149  53.1586 260.3117 0001276  88.0440 272.0708 15.34383086110289
STARLINK-32014          
1 60150U 24120R   26158.99070477 -.00006832  00000+0 -21887-3 0  9995
2 60150  53.1610 260.3408 0002801  99.6546 260.4772 15.30175580110200
STARLINK-32004          
1 60151U 24120S   26158.99382490 -.00000023  00000+0  11335-4 0  9990
2 60151  53.1607 260.3637 0001291  80.2894 279.8252 15.30199964110282
STARLINK-32147          
1 60152U 24120T   26158.98745400 -.00003058  00000+0 -79442-4 0  9999
2 60152  53.1598 260.3292 0001136  99.4142 260.6989 15.34388909110205
STARLINK-32131          
1 60153U 24120U   26158.89496440 -.00000538  00000+0 -48023-5 0  9999
2 60153  53.1611 260.4603 0001104  91.3295 268.7835 15.34375804110270
STARLINK-32145          
1 60154U 24120V   26159.25004630  .00046761  00000+0  13866-2 0  9997
2 60154  53.1589 258.7745 0001057  74.9285  99.3135 15.34397732  5879
STARLINK-32137          
1 60155U 24120W   26158.97903282  .00001075  00000+0  42955-4 0  9999
2 60155  53.1594 260.2719 0001111  94.9415 265.1714 15.34391980110202
STARLINK-32048          
1 60156U 24120X   26158.97271177 -.00004456  00000+0 -12076-3 0  9999
2 60156  53.1615 260.2316 0000975 120.8239 239.2860 15.34419880110204
STARLINK-32129          
1 60157U 24120Y   26158.97483474  .00035699  00000+0  10636-2 0  9995
2 60157  53.1584 260.2481 0001410  61.5707 298.5438 15.34372440110286
ZHONGXING-3A            
1 60179U 24122A   26157.84886203 -.00000300  00000+0  00000+0 0  9996
2 60179   0.0425 119.1641 0001410 341.0815 202.1910  1.00273610  7201
ALOS-4 (DAICHI-4)       
1 60182U 24123A   26159.29860851  .00001509  00000+0  20891-3 0  9998
2 60182  97.9240 256.5971 0001635  97.6811 262.4587 14.79467185104564
STARLINK-11168 [DTC]    
1 60183U 24124A   26159.02657749 -.00023860  00000+0 -19178-3 0  9993
2 60183  53.1604  75.8417 0000652  36.5407 323.5655 15.69819192111912
STARLINK-11187 [DTC]    
1 60184U 24124B   26159.02170634 -.00001327  00000+0 -60947-5 0  9993
2 60184  53.1604  75.8152 0001391  80.7508 279.3667 15.69711351110720
STARLINK-11180 [DTC]    
1 60185U 24124C   26159.01679392 -.00000619  00000+0 -25224-6 0  9991
2 60185  53.1590  75.7815 0001154  75.6011 284.5135 15.69720541110728
STARLINK-11197 [DTC]    
1 60186U 24124D   26159.01189012 -.00000445  00000+0  11881-5 0  9996
2 60186  53.1587  75.7475 0000997  82.1359 277.9772 15.69718960110724
STARLINK-11194 [DTC]    
1 60187U 24124E   26158.94332088  .00000196  00000+0  64762-5 0  9999
2 60187  53.1597  76.0312 0001288  76.3538 283.7624 15.69709745110719
STARLINK-11189 [DTC]    
1 60188U 24124F   26159.06584777  .00000379  00000+0  79831-5 0  9994
2 60188  53.1582  76.1055 0001146  87.8297 272.2852 15.69715653110723
STARLINK-11183 [DTC]    
1 60189U 24124G   26159.06094145  .00001085  00000+0  13804-4 0  9992
2 60189  53.1600  76.0663 0000996  85.0038 275.1094 15.69716600110727
STARLINK-11179 [DTC]    
1 60190U 24124H   26159.05603694 -.00001586  00000+0 -82336-5 0  9993
2 60190  53.1587  76.0391 0001009  91.5739 268.5394 15.69723973110727
STARLINK-11175 [DTC]    
1 60191U 24124J   26159.05113927  .00017027  00000+0  14504-3 0  9994
2 60191  53.1569  76.0090 0001059  99.0140 261.0998 15.69720220110728
STARLINK-11173 [DTC]    
1 60192U 24124K   26159.04622918 -.00001360  00000+0 -63636-5 0  9996
2 60192  53.1586  75.9727 0001925 103.3580 256.7653 15.69692712110725
STARLINK-11172 [DTC]    
1 60193U 24124L   26159.04132574 -.00000973  00000+0 -31693-5 0  9998
2 60193  53.1601  75.9367 0001355 102.6925 257.4244 15.69708210110721
STARLINK-11152 [DTC]    
1 60194U 24124M   26159.03640816  .00007291  00000+0  65066-4 0  9999
2 60194  53.1609  75.9067 0000771  96.5684 263.5422 15.69679056111914
STARLINK-11193 [DTC]    
1 60195U 24124N   26159.03156479 -.00057250  00000+0 -46515-3 0  9996
2 60195  53.1579  75.8735 0001678  43.0493 317.0657 15.70005035110729
STARLINK-31869          
1 60196U 24124P   26158.57606575 -.00001109  00000+0 -23984-4 0  9990
2 60196  53.1610 264.5684 0001195  85.7130 274.4008 15.31700519108067
STARLINK-32023          
1 60197U 24124Q   26158.58874625 -.00010350  00000+0 -29540-3 0  9996
2 60197  53.1597 263.9374 0002036 161.0528 199.0550 15.34416546108077
